COSMOS 2433 (720)       
1 32275C 07052A   23019.99979167  .00000000  00000-0  00000-0 0   198
2 32275  66.0657 357.4828 0004748 271.0623 156.9611  2.13103791    19
COSMOS 2432 (719)       
1 32276C 07052B   23019.99979167  .00000000  00000-0  00000-0 0   199
2 32276  66.0796 357.5875 0012076 320.9543  54.7592  2.13103101    13
COSMOS 2434 (721)       
1 32393C 07065A   23019.99979167  .00000000  00000-0  00000-0 0   193
2 32393  64.3545 234.0421 0005040  73.4900 244.8492  2.13102879    14
COSMOS 2436 (723)       
1 32395C 07065C   23019.99979167  .00000000  00000-0  00000-0 0   195
2 32395  64.3632 234.1014 0017082   8.3474  85.6705  2.13102771    13
COSMOS 2456 (730)       
1 36111C 09070A   23019.99979167 -.00000000  00000-0  00000-0 0   194
2 36111  64.4135 113.6169 0003545 296.0104 184.8394  2.13098669    15
COSMOS 2457 (733)       
1 36112C 09070B   23019.99979167 -.00000000  00000-0  00000-0 0   195
2 36112  64.3971 113.4875 0005455 172.8263  77.0323  2.13100873    10
COSMOS 2460 (732)       
1 36402C 10007C   23019.99979167  .00000000  00000-0  00000-0 0   198
2 36402  65.9332 356.2362 0002558 305.9495 289.7161  2.13106069    10
COSMOS 2476 (744)       
1 37867C 11064A   23019.99979167 -.00000000  00000-0  00000-0 0   199
2 37867  64.6983 115.0571 0022723 235.0298 153.1837  2.13101381    13
COSMOS 2477 (745)       
1 37868C 11064B   23019.99979167 -.00000000  00000-0  00000-0 0   190
2 37868  64.7058 115.1241 0020056 235.7443 330.4664  2.13101103    19
COSMOS 2475 (743)       
1 37869C 11064C   23019.99979167 -.00000000  00000-0  00000-0 0   191
2 37869  64.7130 115.1343 0024195 252.6573 271.7829  2.13101272    11
COSMOS 2485 (747)       
1 39155C 13019A   23019.99979167 -.00000000  00000-0  00000-0 0   193
2 39155  64.8605 115.5321 0023174 231.0417 201.5555  2.13101401    14
COSMOS 2492 (754)       
1 39620C 14012A   23019.99979167  .00000000  00000-0  00000-0 0   193
2 39620  65.8184 355.8871 0015243 318.7569 148.1584  2.13102881    13
COSMOS 2500 (755)       
1 40001C 14032A   23019.99979167  .00000000  00000-0  00000-0 0   190
2 40001  65.7573 355.7320 0006504 225.5576  99.4057  2.13102131    11
COSMOS 2501 (702K)      
1 40315C 14075A   23019.99979167  .00000000  00000-0  00000-0 0   195
2 40315  63.6596 233.5959 0016919 204.5340 289.4705  2.13101331    11
COSMOS 2514 (751)       
1 41330C 16008A   23019.99979167  .00000000  00000-0  00000-0 0   191
2 41330  65.5561 355.3700 0010486 226.7172 282.4642  2.13102478    17
COSMOS 2522 (752)       
1 42939C 17055A   23019.99979167  .00000000  00000-0  00000-0 0   190
2 42939  64.1197 234.3915 0005026 238.7669  30.8350  2.13101881    13
COSMOS 2527 (756)       
1 43508C 18053A   23019.99979167 -.00000000  00000-0  00000-0 0   193
2 43508  65.0228 115.5772 0008937 228.1634  73.4180  2.13102160    16
COSMOS 2529 (757)       
1 43687C 18086A   23019.99979167  .00000000  00000-0  00000-0 0   196
2 43687  64.3348 234.7660 0006976 272.6844 312.3968  2.13102064    19
COSMOS 2534 (758)       
1 44299C 19030A   23019.99979167  .00000000  00000-0  00000-0 0   196
2 44299  64.4070 234.6710 0010186 296.4931  62.9544  2.13101670    16
COSMOS 2544 (759)       
1 44850C 19088A   23019.99979167 -.00000000  00000-0  00000-0 0   193
2 44850  65.0083 115.4248 0013160 254.8119  90.0529  2.13101871    11
COSMOS 2545 (760)       
1 45358C 20018A   23019.99979167  .00000000  00000-0  00000-0 0   191
2 45358  64.8955 355.8007 0010791 258.8477 295.2389  2.13102449    16
COSMOS 2547 (705K)      
1 46805C 20075A   23019.99979167  .00000000  00000-0  00000-0 0   192
2 46805  64.6329 234.1595 0005131 243.3317 164.5402  2.13102862    15
COSMOS 2557 (706K)      
1 52984C 20075A   23019.99979167  .00000000  00000-0  00000-0 0   197
2 52984  64.8035 357.9850 0013839 284.6405   0.1970  2.13101583    18
COSMOS 2559 (707K)      
1 54031C 22130A   23019.99979167  .00000000  00000-0  00000-0 0   196
2 54031  64.7742 358.1207 0006793 238.3517  91.7208  2.13100798    14
COSMOS 2564 (761)       
1 54377C 22161A   23019.99979167  .00000000  00000-0  00000-0 0   193
2 54377  64.7731 234.1717 0006573 211.0372 329.3125  2.13102242    11
